LUDI TANCE-4 01A        
1 57624U 23120A   26197.62366856 -.00000189  00000+0  00000+0 0  9996
2 57624  15.0854 193.2374 0001538  13.4913  41.7726  1.00275602 10849
TJS-10                  
1 58204U 23169A   26197.77594424 -.00000261  00000+0  00000+0 0  9995
2 58204   2.6188  80.1357 0004084 114.6578 111.5406  1.00273410  9834
ZHONGXING-6E            
1 58253U 23172A   26195.70499280 -.00000370  00000+0  00000+0 0  9999
2 58253   0.0192  86.2131 0002698  23.7417 191.9164  1.00272476  9938
YAOGAN-41               
1 58582U 23197A   26197.86452507 -.00000370  00000+0  00000+0 0  9991
2 58582   3.0755 313.6170 0013911 200.9840 214.4165  1.00276419  9629
OVZON-3                 
1 58698U 24003A   26197.85204500  .00000041  00000+0  00000+0 0  9997
2 58698   0.0131 120.8099 0000292 226.4897 313.7910  1.00270918  7743
INSAT-3DS               
1 58990U 24033A   26197.85646502 -.00000166  00000+0  00000+0 0  9996
2 58990   0.0865 264.4409 0001126 223.6610 196.9719  1.00270824 47367
MERAH PUTIH 2           
1 58995U 24035A   26197.77017104  .00000000  00000+0  00000+0 0  9990
2 58995   0.0133  59.3197 0001082  32.4664 233.0241  1.00266251  8887
TJS-11                  
1 59020U 24037A   26197.86244506 -.00000371  00000+0  00000+0 0  9992
2 59020   4.1607 327.4575 0001892 153.2677 237.0143  1.00273054  8886
HULIANWAN GAOGUI-01 (H*)
1 59069U 24040A   26197.56173734  .00000145  00000+0  00000+0 0  9998
2 59069   0.0742 332.6369 0001732  63.3003 134.2990  1.00275538  7628
EUTELSAT 36D            
1 59346U 24059A   26197.81572586  .00000000  00000+0  00000+0 0  9992
2 59346   0.0251  67.8857 0000088 196.7105 359.5945  1.00269693  8445
PAKSAT-MM1              
1 59915U 24104A   26194.56857404  .00000150  00000+0  00000+0 0  9995
2 59915   0.0311 143.3666 0001963 313.2921  77.6097  1.00269751  7795
ASTRA 1P (SES-24)       
1 60086U 24115A   26194.35091053  .00000118  00000+0  00000+0 0  9999
2 60086   0.0666 329.5187 0001497 236.9138 230.3347  1.00281209  7460
GOES 19                 
1 60133U 24119A   26197.82535249 -.00000259  00000+0  00000+0 0  9998
2 60133   0.0160  95.4334 0000394 109.4295 311.7165  1.00271085  7269
ZHONGXING-3A            
1 60179U 24122A   26197.71209671 -.00000328  00000+0  00000+0 0  9994
2 60179   0.0284 124.5614 0002013 325.6390 202.3047  1.00296408  7607
TURKSAT 6A              
1 60233U 24127A   26197.81572586  .00000000  00000+0  00000+0 0  9995
2 60233   0.0183 195.1006 0003000 332.7077 102.4684  1.00270384  7313
HULIANWAN GAOGUI-02 (H*)
1 60327U 24135A   26197.79926569 -.00000184  00000+0  00000+0 0  9993
2 60327   0.0470 356.9602 0006099  13.2369   5.1930  1.00274040  7799
ZHONGXING-4A            
1 60606U 24151A   26196.52995333 -.00000372  00000+0  00000+0 0  9995
2 60606   1.2426 270.4906 0000406 296.2264  35.6107  1.00267142  7039
HULIANWAN GAOGUI-03 (H*)
1 61503U 24181A   26197.82491916 -.00000251  00000+0  00000+0 0  9993
2 61503   0.0514 357.5720 0001102  95.5770  61.3463  1.00270553  7129
DSN-3 (KIRAMEKI-3)      
1 61733U 24198A   26197.79744567 -.00000261  00000+0  00000+0 0  9996
2 61733   0.0177  45.4465 0000884  93.5344 226.7862  1.00271438  6211
KOREASAT 6A             
1 61910U 24206A   26197.86313839 -.00000372  00000+0  00000+0 0  9998
2 61910   0.0181 101.2200 0000778 354.3406 265.8536  1.00269342  6134
OPTUS-X (ADS-01)        
1 62006U 24212A   26196.20183799 -.00000153  00000+0  00000+0 0  9996
2 62006   0.0135  63.8448 0002386  90.1044   8.1442  1.00270006  6040
GSAT-N2 (GSAT-20)       
1 62028U 24214A   26197.85369168 -.00000029  00000+0  00000+0 0  9992
2 62028   0.0696 261.6408 0002653 145.6990 262.5948  1.00271465  6196
SXM-9                   
1 62259U 24234A   26197.30561690 -.00000215  00000+0  00000+0 0  9991
2 62259   0.0159 347.6122 0004847 329.2208   2.1491  1.00269438  5864
TJS-12                  
1 62374U 24246A   26197.79796568 -.00000242  00000+0  00000+0 0  9999
2 62374   0.6078 302.3096 0001823  98.4704 327.6191  1.00268687  5860
NUVIEW ALPHA            
1 62455U 24252B   26196.25545237 -.00000225  00000+0  00000+0 0  9992
2 62455   0.0436  27.4031 0000983  54.2618 220.2947  1.00270943  4107
AGILA                   
1 62456U 24252C   26196.60739123 -.00000192  00000+0  00000+0 0  9994
2 62456   0.0493 128.1618 0001181 351.5480 184.5583  1.00270462  5444
NUVIEW BRAVO            
1 62457U 24252D   26197.53859722 -.00000225  00000+0  00000+0 0  9993
2 62457   0.0684 168.6490 0001545 338.6073 257.8926  1.00270918  4082
THURAYA-4               
1 62483U 25001A   26197.81572586  .00000129  00000+0  00000+0 0  9998
2 62483   0.0244  75.2300 0000187 173.1968  24.1873  1.00273355  4479
SHIJIAN-25 (SJ-25)      
1 62485U 25002A   26197.77611625 -.00000364  00000+0  00000+0 0  9996
2 62485   5.1818  60.9762 0052123 175.5524 104.5543  1.00261568  5659
TJS-14                  
1 62804U 25017A   26197.84379073  .00000105  00000+0  00000+0 0  9995
2 62804   0.7172 297.8731 0002022 308.0727  10.8890  1.00267835  5563
SPAINSAT NG I           
1 62852U 25021A   26197.56078399  .00000141  00000+0  00000+0 0  9999
2 62852   0.0184  36.2533 0000081 261.1430 227.8500  1.00270782  4281
QZS-6 (MICHIBIKI-6)     
1 62876U 25023A   26197.77523458 -.00000244  00000+0  00000+0 0  9996
2 62876   0.0092  17.2493 0001794  96.5474 190.3250  1.00274936  5247
