OBJECT_NAME,OBJECT_ID,EPOCH,MEAN_MOTION,ECCENTRICITY,INCLINATION,RA_OF_ASC_NODE,ARG_OF_PERICENTER,MEAN_ANOMALY,EPHEMERIS_TYPE,CLASSIFICATION_TYPE,NORAD_CAT_ID,ELEMENT_SET_NO,REV_AT_EPOCH,BSTAR,MEAN_MOTION_DOT,MEAN_MOTION_DDOT
LUDI TANCE-4 01A,2023-120A,2026-07-16T14:58:04.963584,1.00275602,.0001538,15.0854,193.2374,13.4913,41.7726,0,U,57624,999,1084,0,-.189E-5,0
TJS-10,2023-169A,2026-07-16T18:37:21.582336,1.00273410,.0004084,2.6188,80.1357,114.6578,111.5406,0,U,58204,999,983,0,-.261E-5,0
ZHONGXING-6E,2023-172A,2026-07-14T16:55:11.377920,1.00272476,.0002698,0.0192,86.2131,23.7417,191.9164,0,U,58253,999,993,0,-.37E-5,0
YAOGAN-41,2023-197A,2026-07-16T20:44:54.966048,1.00276419,.0013911,3.0755,313.6170,200.9840,214.4165,0,U,58582,999,962,0,-.37E-5,0
OVZON-3,2024-003A,2026-07-16T20:26:56.688000,1.00270918,.0000292,0.0131,120.8099,226.4897,313.7910,0,U,58698,999,774,0,.41E-6,0
INSAT-3DS,2024-033A,2026-07-16T20:33:18.577728,1.00270824,.0001126,0.0865,264.4409,223.6610,196.9719,0,U,58990,999,4736,0,-.166E-5,0
MERAH PUTIH 2,2024-035A,2026-07-16T18:29:02.777856,1.00266251,.0001082,0.0133,59.3197,32.4664,233.0241,0,U,58995,999,888,0,0,0
TJS-11,2024-037A,2026-07-16T20:41:55.253184,1.00273054,.0001892,4.1607,327.4575,153.2677,237.0143,0,U,59020,999,888,0,-.371E-5,0
HULIANWAN GAOGUI-01 (HG-01),2024-040A,2026-07-16T13:28:54.106176,1.00275538,.0001732,0.0742,332.6369,63.3003,134.2990,0,U,59069,999,762,0,.145E-5,0
EUTELSAT 36D,2024-059A,2026-07-16T19:34:38.714304,1.00269693,.0000088,0.0251,67.8857,196.7105,359.5945,0,U,59346,999,844,0,0,0
PAKSAT-MM1,2024-104A,2026-07-13T13:38:44.797056,1.00269751,.0001963,0.0311,143.3666,313.2921,77.6097,0,U,59915,999,779,0,.15E-5,0
ASTRA 1P (SES-24),2024-115A,2026-07-13T08:25:18.669792,1.00281209,.00014971,0.0666,329.5187,236.9138,230.3347,0,U,60086,999,746,0,.118E-5,0
GOES 19,2024-119A,2026-07-16T19:48:30.455136,1.00271085,.0000394,0.0160,95.4334,109.4295,311.7165,0,U,60133,999,726,0,-.259E-5,0
ZHONGXING-3A,2024-122A,2026-07-16T17:05:25.155744,1.00296408,.0002013,0.0284,124.5614,325.6390,202.3047,0,U,60179,999,760,0,-.328E-5,0
TURKSAT 6A,2024-127A,2026-07-16T19:34:38.714304,1.00270384,.0003,0.0183,195.1006,332.7077,102.4684,0,U,60233,999,731,0,0,0
HULIANWAN GAOGUI-02 (HG-02),2024-135A,2026-07-16T19:10:56.555616,1.00274040,.0006099,0.0470,356.9602,13.2369,5.1930,0,U,60327,999,779,0,-.184E-5,0
ZHONGXING-4A,2024-151A,2026-07-15T12:43:07.967712,1.00267142,.0000406,1.2426,270.4906,296.2264,35.6107,0,U,60606,999,703,0,-.372E-5,0
HULIANWAN GAOGUI-03 (HG-03),2024-181A,2026-07-16T19:47:53.015424,1.00270553,.0001102,0.0514,357.5720,95.5770,61.3463,0,U,61503,999,712,0,-.251E-5,0
DSN-3 (KIRAMEKI-3),2024-198A,2026-07-16T19:08:19.305888,1.00271438,.0000884,0.0177,45.4465,93.5344,226.7862,0,U,61733,999,621,0,-.261E-5,0
KOREASAT 6A,2024-206A,2026-07-16T20:42:55.156896,1.00269342,.0000778,0.0181,101.2200,354.3406,265.8536,0,U,61910,999,613,0,-.372E-5,0
OPTUS-X (ADS-01),2024-212A,2026-07-15T04:50:38.802336,1.00270006,.00023861,0.0135,63.8448,90.1044,8.1442,0,U,62006,999,604,0,-.153E-5,0
GSAT-N2 (GSAT-20),2024-214A,2026-07-16T20:29:18.961152,1.00271465,.0002653,0.0696,261.6408,145.6990,262.5948,0,U,62028,999,619,0,-.29E-6,0
SXM-9,2024-234A,2026-07-16T07:20:05.300160,1.00269438,.0004847,0.0159,347.6122,329.2208,2.1491,0,U,62259,999,586,0,-.215E-5,0
TJS-12,2024-246A,2026-07-16T19:09:04.234752,1.00268687,.0001823,0.6078,302.3096,98.4704,327.6191,0,U,62374,999,586,0,-.242E-5,0
NUVIEW ALPHA,2024-252B,2026-07-15T06:07:51.084768,1.00270943,.0000983,0.0436,27.4031,54.2618,220.2947,0,U,62455,999,410,0,-.225E-5,0
AGILA,2024-252C,2026-07-15T14:34:38.602272,1.00270462,.0001181,0.0493,128.1618,351.5480,184.5583,0,U,62456,999,544,0,-.192E-5,0
NUVIEW BRAVO,2024-252D,2026-07-16T12:55:34.799808,1.00270918,.0001545,0.0684,168.6490,338.6073,257.8926,0,U,62457,999,408,0,-.225E-5,0
THURAYA-4,2025-001A,2026-07-16T19:34:38.714304,1.00273355,.0000187,0.0244,75.2300,173.1968,24.1873,0,U,62483,999,447,0,.129E-5,0
SHIJIAN-25 (SJ-25),2025-002A,2026-07-16T18:37:36.444000,1.00261568,.0052123,5.1818,60.9762,175.5524,104.5543,0,U,62485,999,565,0,-.364E-5,0
TJS-14,2025-017A,2026-07-16T20:15:03.519072,1.00267835,.0002022,0.7172,297.8731,308.0727,10.8890,0,U,62804,999,556,0,.105E-5,0
SPAINSAT NG I,2025-021A,2026-07-16T13:27:31.736736,1.00270782,.0000081,0.0184,36.2533,261.1430,227.8500,0,U,62852,999,428,0,.141E-5,0
QZS-6 (MICHIBIKI-6),2025-023A,2026-07-16T18:36:20.267712,1.00274936,.0001794,0.0092,17.2493,96.5474,190.3250,0,U,62876,999,524,0,-.244E-5,0
